[{"OBJECT_NAME":"YAOGAN-43 01F","OBJECT_ID":"2024-148F","EPOCH":"2026-03-10T00:23:08.877408","MEAN_MOTION":15.29824616,"ECCENTRICITY":0.00057048,"INCLINATION":34.9925,"RA_OF_ASC_NODE":59.8891,"ARG_OF_PERICENTER":18.4862,"MEAN_ANOMALY":341.6062,"EPHEMERIS_TYPE":0,"CLASSIFICATION_TYPE":"U","NORAD_CAT_ID":60463,"ELEMENT_SET_NO":999,"REV_AT_EPOCH":8707,"BSTAR":0.00058388219,"MEAN_MOTION_DOT":0.00017308,"MEAN_MOTION_DDOT":0},{"OBJECT_NAME":"STARLINK-36077","OBJECT_ID":"2025-283AB","EPOCH":"2026-03-09T03:52:52.556160","MEAN_MOTION":15.30183768,"ECCENTRICITY":0.00012343,"INCLINATION":53.1613,"RA_OF_ASC_NODE":26.5921,"ARG_OF_PERICENTER":67.6201,"MEAN_ANOMALY":292.493,"EPHEMERIS_TYPE":0,"CLASSIFICATION_TYPE":"U","NORAD_CAT_ID":66903,"ELEMENT_SET_NO":999,"REV_AT_EPOCH":1576,"BSTAR":0.0010877752,"MEAN_MOTION_DOT":0.0003198,"MEAN_MOTION_DDOT":0}]
